{
    "links": {
        "self": "http://www.neowsapp.com/rest/v1/neo/54017062?api_key=iIulBulltgU6a56xZRHN4H3l9WmuAYTsLGpBGhQ2"
    },
    "id": "54017062",
    "neo_reference_id": "54017062",
    "name": "(2020 JU2)",
    "designation": "2020 JU2",
    "nasa_jpl_url": "http://ssd.jpl.nasa.gov/sbdb.cgi?sstr=54017062",
    "absolute_magnitude_h": 22.373,
    "estimated_diameter": {
        "kilometers": {
            "estimated_diameter_min": 0.0891158547,
            "estimated_diameter_max": 0.1992691089
        },
        "meters": {
            "estimated_diameter_min": 89.1158546765,
            "estimated_diameter_max": 199.2691089297
        },
        "miles": {
            "estimated_diameter_min": 0.0553740077,
            "estimated_diameter_max": 0.1238200455
        },
        "feet": {
            "estimated_diameter_min": 292.3748606569,
            "estimated_diameter_max": 653.7700633408
        }
    },
    "is_potentially_hazardous_asteroid": false,
    "close_approach_data": [
        {
            "close_approach_date": "2020-05-29",
            "close_approach_date_full": "2020-May-29 01:21",
            "epoch_date_close_approach": 1590715260000,
            "relative_velocity": {
                "kilometers_per_second": "17.1481105364",
                "kilometers_per_hour": "61733.1979310206",
                "miles_per_hour": "38358.6084588611"
            },
            "miss_distance": {
                "astronomical": "0.365357386",
                "lunar": "142.124023154",
                "kilometers": "54656686.73436782",
                "miles": "33962090.293683116"
            },
            "orbiting_body": "Earth"
        }
    ],
    "orbital_data": {
        "orbit_id": "3",
        "orbit_determination_date": "2020-08-22 06:34:00",
        "first_observation_date": "2020-05-15",
        "last_observation_date": "2020-05-28",
        "data_arc_in_days": 13,
        "observations_used": 27,
        "orbit_uncertainty": "9",
        "minimum_orbit_intersection": ".341835",
        "jupiter_tisserand_invariant": "4.037",
        "epoch_osculation": "2458986.5",
        "eccentricity": ".3110530337715083",
        "semi_major_axis": "1.651116558098409",
        "inclination": "34.16655389306727",
        "ascending_node_longitude": "56.59348768383531",
        "orbital_period": "774.9345533032963",
        "perihelion_distance": "1.137531743591528",
        "perihelion_argument": "258.8571770671776",
        "aphelion_distance": "2.16470137260529",
        "perihelion_time": "2459084.934915392453",
        "mean_anomaly": "314.2715324923525",
        "mean_motion": ".4645553595015682",
        "equinox": "J2000",
        "orbit_class": {
            "orbit_class_type": "AMO",
            "orbit_class_description": "Near-Earth asteroid orbits similar to that of 1221 Amor",
            "orbit_class_range": "1.017 AU < q (perihelion) < 1.3 AU"
        }
    },
    "is_sentry_object": false
}